NORAD_CAT_ID,OBJECT_NAME,OBJECT_TYPE,EPOCH,MEAN_MOTION,ECCENTRICITY,INCLINATION,RA_OF_ASC_NODE,ARG_OF_PERICENTER,MEAN_ANOMALY,BSTAR,MEAN_MOTION_DOT,MEAN_MOTION_DDOT,TLE_LINE0,TLE_LINE1,TLE_LINE2,SEMIMAJOR_AXIS,PERIOD,APOGEE,PERIGEE,DECAYED
53998.0,STARLINK-5128,PAYLOAD,2023-07-15 10:40:01,15.08843891,0.0001007,53.2162,240.5151,82.9218,277.1888,0.00010592,1.399e-05,0.0,0 STARLINK-5128,1 53998U 22125AL  23196.44446509  .00001399  00000-0  10592-3 0  9995,2 53998  53.2162 240.5151 0001007  82.9218 277.1888 15.08843891 43365,6917.868,95.437,540.43,539.037,0.0
53998.0,STARLINK-5128,PAYLOAD,2023-07-16 02:33:53,15.08836506,9.74e-05,53.2168,237.5423,81.9921,278.1181,6.9033e-05,8.11e-06,0.0,0 STARLINK-5128,1 53998U 22125AL  23197.10687118  .00000811  00000-0  69033-4 0  9995,2 53998  53.2168 237.5423 0000974  81.9921 278.1181 15.08836506 43464,6917.891,95.438,540.43,539.082,0.0
53998.0,STARLINK-5128,PAYLOAD,2023-07-17 08:46:12,15.0884699,9.87e-05,53.2161,231.8917,84.506,275.6044,0.00011099,1.479e-05,0.0,0 STARLINK-5128,1 53998U 22125AL  23198.36542444  .00001479  00000-0  11099-3 0  9995,2 53998  53.2161 231.8917 0000987  84.5060 275.6044 15.08846990 43658,6917.859,95.437,540.407,539.041,0.0
53998.0,STARLINK-5128,PAYLOAD,2023-07-18 02:15:27,15.08836296,9.64e-05,53.2156,228.6197,89.8967,270.2136,6.9592e-05,8.2e-06,0.0,0 STARLINK-5128,1 53998U 22125AL  23199.09407145  .00000820  00000-0  69592-4 0  9995,2 53998  53.2156 228.6197 0000964  89.8967 270.2136 15.08836296 43768,6917.892,95.438,540.424,539.09,0.0
53998.0,STARLINK-5128,PAYLOAD,2023-07-19 06:52:24,15.0883853,0.0001033,53.2158,223.2667,91.9002,268.2109,-9.0172e-06,-4.31e-06,0.0,0 STARLINK-5128,1 53998U 22125AL  23200.28639364 -.00000431  00000-0 -90172-5 0  9998,2 53998  53.2158 223.2667 0001033  91.9002 268.2109 15.08838530 43945,6917.885,95.438,540.464,539.035,0.0
53998.0,STARLINK-5128,PAYLOAD,2023-07-21 01:47:49,15.08836475,0.0001146,53.2164,215.2382,86.9602,273.1522,5.4217e-05,5.75e-06,0.0,0 STARLINK-5128,1 53998U 22125AL  23202.07487667  .00000575  00000-0  54217-4 0  9990,2 53998  53.2164 215.2382 0001146  86.9602 273.1522 15.08836475 44213,6917.891,95.438,540.549,538.963,0.0
53998.0,STARLINK-5128,PAYLOAD,2023-07-24 10:52:29,15.08842136,0.0001209,53.2158,200.0725,80.8935,279.2194,4.4298e-05,4.17e-06,0.0,0 STARLINK-5128,1 53998U 22125AL  23205.45311387  .00000417  00000-0  44298-4 0  9993,2 53998  53.2158 200.0725 0001209  80.8935 279.2194 15.08842136 44652,6917.874,95.437,540.575,538.902,0.0
53998.0,STARLINK-5128,PAYLOAD,2023-07-25 10:43:16,15.08840195,0.0001433,53.2161,195.6136,70.3814,289.7333,4.4124e-05,4.14e-06,0.0,0 STARLINK-5128,1 53998U 22125AL  23206.44671602  .00000414  00000-0  44124-4 0  9997,2 53998  53.2161 195.6136 0001433  70.3814 289.7333 15.08840195 44801,6917.88,95.438,540.736,538.753,0.0
53998.0,STARLINK-5128,PAYLOAD,2023-07-26 08:58:40,15.08839821,0.0001292,53.2148,191.45,86.4298,273.6842,6.252e-05,7.07e-06,0.0,0 STARLINK-5128,1 53998U 22125AL  23207.37407489  .00000707  00000-0  62520-4 0  9995,2 53998  53.2148 191.4500 0001292  86.4298 273.6842 15.08839821 44948,6917.881,95.438,540.64,538.852,0.0
53998.0,STARLINK-5128,PAYLOAD,2023-07-27 08:49:26,15.08844943,0.0001253,53.2165,186.9889,94.5587,265.5548,8.4947e-05,1.064e-05,0.0,0 STARLINK-5128,1 53998U 22125AL  23208.36767057  .00001064  00000-0  84947-4 0  9999,2 53998  53.2165 186.9889 0001253  94.5587 265.5548 15.08844943 45163,6917.865,95.437,540.597,538.863,0.0
53998.0,STARLINK-5128,PAYLOAD,2023-07-27 15:11:00,15.08829355,0.0001465,53.2165,185.7995,85.1188,274.9971,-2.7535e-05,-7.26e-06,0.0,0 STARLINK-5128,1 53998U 22125AL  23208.63264505 -.00000726  00000-0 -27535-4 0  9995,2 53998  53.2165 185.7995 0001465  85.1188 274.9971 15.08829355 45205,6917.913,95.438,540.791,538.764,0.0
53998.0,STARLINK-5128,PAYLOAD,2023-07-28 10:15:38,15.08831645,0.0001277,53.2171,182.2321,96.634,263.4797,-9.6637e-06,-4.42e-06,0.0,0 STARLINK-5128,1 53998U 22125AL  23209.42752727 -.00000442  00000-0 -96637-5 0  9996,2 53998  53.2171 182.2321 0001277  96.6340 263.4797 15.08831645 45254,6917.906,95.438,540.654,538.888,0.0
53998.0,STARLINK-5128,PAYLOAD,2023-07-29 02:09:29,15.08830607,0.0001837,53.2171,179.2583,113.9634,246.1551,0.00019418,2.803e-05,0.0,0 STARLINK-5128,1 53998U 22125AL  23210.08992255  .00002803  00000-0  19418-3 0  9993,2 53998  53.2171 179.2583 0001837 113.9634 246.1551 15.08830607 45423,6917.909,95.438,541.045,538.503,0.0
53998.0,STARLINK-5128,PAYLOAD,2023-07-29 10:06:24,15.0884473,0.0001398,53.2169,177.7713,104.307,255.8078,0.00013751,1.901e-05,0.0,0 STARLINK-5128,1 53998U 22125AL  23210.42111772  .00001901  00000-0  13751-3 0  9990,2 53998  53.2169 177.7713 0001398 104.3070 255.8078 15.08844730 45476,6917.866,95.437,540.698,538.764,0.0
53998.0,STARLINK-5128,PAYLOAD,2023-07-30 02:00:16,15.08832484,0.0001586,53.216,174.7955,105.1449,254.9719,0.00013418,1.848e-05,0.0,0 STARLINK-5128,1 53998U 22125AL  23211.08352783  .00001848  00000-0  13418-3 0  9992,2 53998  53.2160 174.7955 0001586 105.1449 254.9719 15.08832484 45576,6917.903,95.438,540.866,538.671,0.0
53998.0,STARLINK-5128,PAYLOAD,2023-07-31 06:37:12,15.08846524,0.0001226,53.2165,169.4446,99.8876,260.2255,5.881e-05,6.48e-06,0.0,0 STARLINK-5128,1 53998U 22125AL  23212.27584421  .00000648  00000-0  58810-4 0  9993,2 53998  53.2165 169.4446 0001226  99.8876 260.2255 15.08846524 45756,6917.86,95.437,540.574,538.877,0.0
53998.0,STARLINK-5128,PAYLOAD,2023-07-31 14:34:09,15.088381,0.0001171,53.2157,167.9567,109.7763,250.3355,1.2836e-05,-8.4e-07,0.0,0 STARLINK-5128,1 53998U 22125AL  23212.60705025 -.00000084  00000-0  12836-4 0  9998,2 53998  53.2157 167.9567 0001171 109.7763 250.3355 15.08838100 45807,6917.886,95.438,540.561,538.941,0.0
53998.0,STARLINK-5128,PAYLOAD,2023-08-02 01:32:37,15.08844473,0.0001198,53.2155,161.4132,96.3605,263.7524,6.2873e-05,7.13e-06,0.0,0 STARLINK-5128,1 53998U 22125AL  23214.06432593  .00000713  00000-0  62873-4 0  9991,2 53998  53.2155 161.4132 0001198  96.3605 263.7524 15.08844473 46028,6917.867,95.437,540.56,538.903,0.0
53998.0,STARLINK-5128,PAYLOAD,2023-08-03 02:58:47,15.08843586,0.000134,53.2172,156.6571,100.9926,259.1217,6.702e-05,7.79e-06,0.0,0 STARLINK-5128,1 53998U 22125AL  23215.12416650  .00000779  00000-0  67020-4 0  9996,2 53998  53.2172 156.6571 0001340 100.9926 259.1217 15.08843586 46186,6917.869,95.437,540.661,538.807,0.0
53998.0,STARLINK-5128,PAYLOAD,2023-08-03 17:38:02,15.08830393,0.0002032,53.2206,153.9356,81.856,356.6363,1.4774e-05,-5.3e-07,0.0,0 STARLINK-5128,1 53998U 22125AL  23215.73475431 -.00000053  00000-0  14774-4 0  9999,2 53998  53.2206 153.9356 0002032  81.8560 356.6363 15.08830393 46272,6917.91,95.438,541.18,538.369,0.0
53998.0,STARLINK-5128,PAYLOAD,2023-08-04 02:49:35,15.0884161,0.0001089,53.2161,152.1979,95.5411,264.5705,-9.5946e-06,-4.4e-06,0.0,0 STARLINK-5128,1 53998U 22125AL  23216.11777168 -.00000440  00000-0 -95946-5 0  9996,2 53998  53.2161 152.1979 0001089  95.5411 264.5705 15.08841610 46330,6917.875,95.437,540.494,538.987,0.0
53998.0,STARLINK-5128,PAYLOAD,2023-08-06 00:55:46,15.08846824,0.000112,53.2159,143.5742,103.1214,256.9903,0.00022105,3.233e-05,0.0,0 STARLINK-5128,1 53998U 22125AL  23218.03872806  .00003233  00000-0  22105-3 0  9990,2 53998  53.2159 143.5742 0001120 103.1214 256.9903 15.08846824 46621,6917.86,95.437,540.499,538.95,0.0
53998.0,STARLINK-5128,PAYLOAD,2023-08-06 18:25:01,15.08840262,0.0001542,53.2163,140.309,83.4414,276.6753,-4.0316e-05,-9.3e-06,0.0,0 STARLINK-5128,1 53998U 22125AL  23218.76737335 -.00000930  00000-0 -40316-4 0  9995,2 53998  53.2163 140.3090 0001542  83.4414 276.6753 15.08840262 46731,6917.88,95.438,540.811,538.678,0.0
53998.0,STARLINK-5128,PAYLOAD,2023-08-07 02:21:57,15.08827589,0.0001061,53.2163,138.8178,80.9992,279.112,-0.00016995,-2.991e-05,0.0,0 STARLINK-5128,1 53998U 22125AL  23219.09858114 -.00002991  00000-0 -16995-3 0  9995,2 53998  53.2163 138.8178 0001061  80.9992 279.1120 15.08827589 46787,6917.918,95.438,540.517,539.049,0.0
53998.0,STARLINK-5128,PAYLOAD,2023-08-07 11:54:16,15.0883774,0.0001051,53.2165,137.0337,78.1597,281.9513,4.8436e-05,4.83e-06,0.0,0 STARLINK-5128,1 53998U 22125AL  23219.49601865  .00000483  00000-0  48436-4 0  9996,2 53998  53.2165 137.0337 0001051  78.1597 281.9513 15.08837740 46840,6917.887,95.438,540.479,539.025,0.0
53998.0,STARLINK-5128,PAYLOAD,2023-08-08 00:37:20,15.08853316,9e-05,53.2152,134.6543,72.5888,287.5203,0.00044751,6.844e-05,0.0,0 STARLINK-5128,1 53998U 22125AL  23220.02593350  .00006844  00000-0  44751-3 0  9998,2 53998  53.2152 134.6543 0000900  72.5888 287.5203 15.08853316 46925,6917.84,95.437,540.327,539.082,0.0
53998.0,STARLINK-5128,PAYLOAD,2023-08-08 03:48:06,15.08865704,9.99e-05,53.2152,134.059,72.6065,287.5036,0.00097559,0.00015284,0.0,0 STARLINK-5128,1 53998U 22125AL  23220.15841245  .00015284  00000-0  97559-3 0  9993,2 53998  53.2152 134.0590 0000999  72.6065 287.5036 15.08865704 46947,6917.802,95.436,540.358,538.976,0.0
53998.0,STARLINK-5128,PAYLOAD,2023-08-08 18:06:35,15.08847654,8.25e-05,53.214,131.3807,98.2617,261.8469,0.0002201,3.218e-05,0.0,0 STARLINK-5128,1 53998U 22125AL  23220.75457344  .00003218  00000-0  22010-3 0  9996,2 53998  53.2140 131.3807 0000825  98.2617 261.8469 15.08847654 47030,6917.857,95.437,540.293,539.151,0.0
53998.0,STARLINK-5128,PAYLOAD,2023-08-09 03:38:53,15.08861899,0.0001203,53.216,129.5995,73.0572,287.0552,0.00053561,8.252e-05,0.0,0 STARLINK-5128,1 53998U 22125AL  23221.15200986  .00008252  00000-0  53561-3 0  9997,2 53998  53.2160 129.5995 0001203  73.0572 287.0552 15.08861899 47097,6917.813,95.436,540.511,538.846,0.0
53998.0,STARLINK-5128,PAYLOAD,2023-08-09 11:35:49,15.08849084,8.64e-05,53.2152,128.1107,100.8379,259.271,0.00039674,6.034e-05,0.0,0 STARLINK-5128,1 53998U 22125AL  23221.48320979  .00006034  00000-0  39674-3 0  9993,2 53998  53.2152 128.1107 0000864 100.8379 259.2710 15.08849084 47149,6917.853,95.437,540.315,539.12,0.0
